#aV2022  3 20  0  0  0.00000000     288 DD+AD WGS84 FIT  NGA
## 2202      0.00000000   300.00000000 59658 0.0000000000000
+   32     1  2  3  4  5  6  7  8  9 10 11 12 13 14 15 16 17
+         18 19 20 21 22 23 24 25 26 27 28 29 30 31 32  0  0
+          0  0  0  0  0  0  0  0  0  0  0  0  0  0  0  0  0
+          0  0  0  0  0  0  0  0  0  0  0  0  0  0  0  0  0
+          0  0  0  0  0  0  0  0  0  0  0  0  0  0  0  0  0
++         2  2  2  2  2  2  2  2  2  2  2  2  2  2  2  2  2
++         2  2  2  2  2  2  2  2  2  2  2  2  2  2  2  0  0
++         0  0  0  0  0  0  0  0  0  0  0  0  0  0  0  0  0
++         0  0  0  0  0  0  0  0  0  0  0  0  0  0  0  0  0
++         0  0  0  0  0  0  0  0  0  0  0  0  0  0  0  0  0
%c cc cc ccc ccc cccc cccc cccc cccc ccccc ccccc ccccc ccccc
%c cc cc ccc ccc cccc cccc cccc cccc ccccc ccccc ccccc ccccc
%f  0.0000000  0.000000000  0.00000000000  0.000000000000000
%f  0.0000000  0.000000000  0.00000000000  0.000000000000000
%i    0    0    0    0      0      0      0      0         0
%i    0    0    0    0      0      0      0      0         0
/*      NGA, ST. LOUIS,MO.                                  
/*   EPHEMERIS COMPUTED FROM 2 DAYS OF DATA                 
/*   EPOCHA v7 SMOOTHER                                     
/*   G2139 IERS2010 SATIGS SATAPC                           
*  2022  3 20 18 40  0.00000000
P  1  13845.408282 -21575.238409   5908.533438    404.264965                    
V  1  -1175.060054   8153.761798  31379.074393     -0.090594                    
P  2 -16046.394484   3789.851207 -20198.095149   -652.466616                    
V  2   7824.419091 -25961.982138 -10609.767018     -0.004029                    
P  3  17160.997925 -12829.938542 -15724.845872   -172.136398                    
V  3  19867.409655   -596.187887  22421.606505     -0.165463                    
P  4   7528.546813 -14632.695546 -20823.304052   -182.239156                    
V  4  15812.328847  21252.047039  -9295.283122      0.027424                    
P  5 -26090.530818   5172.039323   1391.191346    -75.369588                    
V  5  -2360.804550  -2389.506360 -31563.575467     -0.013517                    
P  6  -9109.944277 -13596.046277 -20833.032959    237.987960                    
V  6  11231.580804 -24075.361141  10841.937549      0.129175                    
P  7   3440.403706 -24513.107419   9305.117194    316.969268                    
V  7   7439.387028  -9243.912524 -28770.859347      0.018415                    
P  8  14986.088292  -4902.762951  21389.021175    -60.623766                    
V  8  16402.387129  21661.890456  -6170.581321     -0.014780                    
P  9  -3050.819340 -21551.871421 -15264.548960   -348.685241                    
V  9  13535.668570  13916.909535 -22482.888799      0.021426                    
P 10  12909.231244  12169.502829  20002.823124   -352.902609                    
V 10 -24672.670726   3859.521632  13390.103150     -0.116677                    
P 11 -16783.781688   1671.131667 -20519.234069    -57.586896                    
V 11  10738.298137 -23744.122753 -10730.807082      0.090842                    
P 12 -20484.264059  10280.888291 -13575.691763   -187.845500                    
V 12 -16906.189216  -1224.751580  25203.060440     -0.057606                    
P 13 -17654.127686  -4611.225031  19207.696620    280.145639                    
V 13 -10945.956040 -22101.630637 -15084.886361      0.063833                    
P 14 -11437.483550 -13317.071563  19947.250763    -95.687368                    
V 14  25177.543399  -3144.970262  12258.083814     -0.035281                    
P 15 -14348.005915   7381.296602  20727.907046    -75.289614                    
V 15 -18582.595905 -20062.372472  -5293.452416      0.029252                    
P 16  26715.278128    892.116383  -2396.743831   -482.867173                    
V 16  -2609.761826   2195.038278 -31453.476626     -0.042749                    
P 17 -13500.322362 -22801.186235   1781.220873    589.764447                    
V 17   2824.926594    226.178216  32097.844055      0.050207                    
P 18  -4461.162038  24573.148973   8880.295552    215.311462                    
V 18  -6811.733288   9320.337088 -29298.958663     -0.088759                    
P 19 -16845.661190 -19651.693782  -6650.734494    133.584268                    
V 19  -2416.115297  -7915.707196  30535.321806      0.049841                    
P 20 -25102.471852    810.539833  -8254.609326    516.215439                    
V 20   9281.685627  -6088.984338 -29055.727833     -0.001709                    
P 21  16480.558852 -13430.667984  16153.054410    159.614731                    
V 21  -4224.986758  19241.624662  21834.676598      0.004276                    
P 22  17904.382489  17728.767758  -8280.855461    230.527932                    
V 22   3702.007457  10685.708864  29262.208698      0.058658                    
P 23    311.826705  15141.157035  21805.518778     -8.437214                    
V 23 -27433.259863   3800.245692  -2339.510308     -0.031495                    
P 24 -14470.390920  19437.454753  10085.817357    266.158807                    
V 24    912.956486 -13866.604454  27648.904009     -0.037730                    
P 25  -7487.052571  15465.052892 -20469.049043    300.969796                    
V 25 -25381.627998   2038.109109  11254.034932      0.051502                    
P 26  22229.494708   6198.851091 -13501.623697    192.334796                    
V 26 -16261.535823   5370.962986 -24152.047022      0.029799                    
P 27  19491.384972   7251.797005  16544.552856    160.241562                    
V 27  11578.006207  17827.615824 -20805.553958      0.119362                    
P 28 -18859.444071 -10447.495711  15874.958422    376.178288                    
V 28  19248.529106  -2260.244856  22328.274244     -0.084253                    
P 29     52.345394  20747.261450 -16599.435718   -493.634481                    
V 29 -12468.107639 -16909.815992 -21292.068666     -0.044102                    
P 30  -3032.755075 -21215.389514  15605.035769   -519.729533                    
V 30  10522.591703 -17033.783297 -21457.560590     -0.019687                    
P 31  11443.058878  11143.889846 -21279.183013   -169.803621                    
V 31 -11899.527082  24052.226601   6694.946405     -0.017114                    
P 32  16859.667405  20599.825274  -1390.249202    -88.630196                    
V 32  -1021.672382   3187.411719  31511.124652     -0.075032                    
EOF
